{
"type": "FeatureCollection",
"name": "au-1953",
"features": [
{ "type": "Feature", "properties": { "id": "au-1953", "Location": "Melbourne", "Name": "Albert Park Circuit", "opened": 1953, "firstgp": 1996, "length": 5278, "altitude": 10 }, "geometry": { "type": "LineString", "coordinates": [ [ 144.968644, -37.849757 ], [ 144.967627, -37.848964 ], [ 144.966121, -37.847751 ], [ 144.966034, -37.847681 ], [ 144.965997, -37.847585 ], [ 144.966003, -37.847543 ], [ 144.966028, -37.847504 ], [ 144.966079, -37.847406 ], [ 144.966164, -37.847287 ], [ 144.966217, -37.847135 ], [ 144.966247, -37.846948 ], [ 144.966253, -37.846811 ], [ 144.9662, -37.846544 ], [ 144.966134, -37.846408 ], [ 144.966031, -37.846266 ], [ 144.96591, -37.846152 ], [ 144.965642, -37.845941 ], [ 144.965324, -37.845711 ], [ 144.964876, -37.845369 ], [ 144.96433, -37.844909 ], [ 144.964111, -37.844724 ], [ 144.963529, -37.844147 ], [ 144.96324, -37.843842 ], [ 144.962941, -37.843471 ], [ 144.962366, -37.842676 ], [ 144.962224, -37.842453 ], [ 144.962138, -37.842286 ], [ 144.962149, -37.842193 ], [ 144.962198, -37.842127 ], [ 144.962319, -37.842079 ], [ 144.962725, -37.842023 ], [ 144.962853507425649, -37.841951528662698 ], [ 144.962936452621847, -37.841862445450964 ], [ 144.963045940280864, -37.841639736950881 ], [ 144.963258279983194, -37.841199558172619 ], [ 144.963460666261966, -37.840769857307492 ], [ 144.963606649807332, -37.840568106647446 ], [ 144.963659734732886, -37.840463300891962 ], [ 144.963691, -37.840347 ], [ 144.963673, -37.839913 ], [ 144.963686, -37.839876 ], [ 144.963849, -37.839726 ], [ 144.963998, -37.839637 ], [ 144.96514, -37.838986 ], [ 144.965393, -37.838871 ], [ 144.966572, -37.838491 ], [ 144.967017, -37.838364 ], [ 144.96742, -37.838172 ], [ 144.967726, -37.838025 ], [ 144.967858423268069, -37.837964173713019 ], [ 144.96790650395593, -37.837941638678281 ], [ 144.967929650208646, -37.837929827160011 ], [ 144.96795422084611, -37.837924765080182 ], [ 144.967963835443385, -37.83792842102676 ], [ 144.967970245174911, -37.837936857825881 ], [ 144.967981284156963, -37.837953731421216 ], [ 144.968005687466501, -37.837984884974112 ], [ 144.968073, -37.838052 ], [ 144.968206, -37.838176 ], [ 144.968367, -37.838288 ], [ 144.968587, -37.838411 ], [ 144.968867, -37.838494 ], [ 144.96923, -37.838529 ], [ 144.969558, -37.838541 ], [ 144.969836, -37.838574 ], [ 144.970146, -37.838659 ], [ 144.97042, -37.838762 ], [ 144.970722, -37.838939 ], [ 144.970926, -37.839083 ], [ 144.971129, -37.839292 ], [ 144.971319, -37.839552 ], [ 144.971426, -37.839817 ], [ 144.971493, -37.840022 ], [ 144.971527, -37.840194 ], [ 144.971697740842103, -37.840782245514198 ], [ 144.971777719886859, -37.841386783420397 ], [ 144.971760581520158, -37.841535661398098 ], [ 144.97173201757559, -37.841702584833904 ], [ 144.971701, -37.841896 ], [ 144.971643100167995, -37.842056310938148 ], [ 144.971546618463748, -37.84227472789884 ], [ 144.97145978492992, -37.842439810056206 ], [ 144.9713504389984, -37.842668384741003 ], [ 144.971276469691816, -37.842797910081266 ], [ 144.971175728856338, -37.842990840616835 ], [ 144.971095749811582, -37.8431397153566 ], [ 144.970821535943884, -37.843681075513366 ], [ 144.970646, -37.84426 ], [ 144.970622, -37.84442 ], [ 144.970609, -37.84461 ], [ 144.970609, -37.844784 ], [ 144.970628, -37.8451 ], [ 144.970674, -37.845345 ], [ 144.970759, -37.845626 ], [ 144.970864, -37.845898 ], [ 144.971, -37.846132 ], [ 144.971142, -37.846349 ], [ 144.971378, -37.846641 ], [ 144.971536, -37.846825 ], [ 144.971852, -37.84709 ], [ 144.972897, -37.847824 ], [ 144.973062, -37.847925 ], [ 144.973217, -37.847992 ], [ 144.973331, -37.848035 ], [ 144.973552, -37.848088 ], [ 144.973764, -37.848102 ], [ 144.974022, -37.848094 ], [ 144.974255, -37.848093 ], [ 144.974481, -37.848086 ], [ 144.974673, -37.848091 ], [ 144.974837, -37.848123 ], [ 144.975001, -37.848186 ], [ 144.975113, -37.848236 ], [ 144.975312, -37.848376 ], [ 144.976467, -37.849153 ], [ 144.976897, -37.849437 ], [ 144.977107, -37.849636 ], [ 144.977263, -37.849779 ], [ 144.977433, -37.849992 ], [ 144.977605, -37.850308 ], [ 144.977777, -37.850704 ], [ 144.978233, -37.85195 ], [ 144.978506, -37.852742 ], [ 144.978558, -37.852962 ], [ 144.978587, -37.853073 ], [ 144.978610329267468, -37.853140912433524 ], [ 144.978659733742063, -37.85336382119317 ], [ 144.978359778003465, -37.853422334630892 ], [ 144.977858675475431, -37.853514284224914 ], [ 144.977290524017604, -37.8536173790879 ], [ 144.976740017015004, -37.853728832831656 ], [ 144.97621068335863, -37.853868149774392 ], [ 144.976129518864639, -37.853882081454195 ], [ 144.976006007678166, -37.853896013131354 ], [ 144.975854265363324, -37.853887654125373 ], [ 144.975691936375398, -37.853843072744134 ], [ 144.975508, -37.853774 ], [ 144.975409, -37.853702 ], [ 144.975314, -37.853585 ], [ 144.974686, -37.85267 ], [ 144.974306, -37.852184 ], [ 144.974255, -37.852119 ], [ 144.974202, -37.852081 ], [ 144.974149, -37.852065 ], [ 144.974058, -37.852062 ], [ 144.973994, -37.852091 ], [ 144.973312, -37.852701 ], [ 144.973217, -37.852776 ], [ 144.973115, -37.852823 ], [ 144.972987, -37.852863 ], [ 144.972873, -37.852884 ], [ 144.972771, -37.852883 ], [ 144.972649, -37.852864 ], [ 144.97248, -37.852817 ], [ 144.972355, -37.852747 ], [ 144.972306, -37.852709 ], [ 144.968644, -37.849757 ] ] } }
]
}
