{
"type": "FeatureCollection",
"name": "au-1953-fly-path",
"crs": { "type": "name", "properties": { "name": "urn:ogc:def:crs:OGC:1.3:CRS84" } },
"features": [
{ "type": "Feature", "properties": { "id": 5 }, "geometry": { "type": "MultiLineString", "coordinates": [ [ [ 144.977111572233696, -37.849599419963646 ], [ 144.976104491461797, -37.849073612834047 ], [ 144.975515527641107, -37.848764566400391 ], [ 144.975146706640999, -37.848569373366772 ], [ 144.974796118389918, -37.848382157413745 ], [ 144.97456764088821, -37.848258389934792 ], [ 144.974307525830596, -37.848115783125202 ], [ 144.974092844345307, -37.847996590854493 ], [ 144.973886260521851, -37.847880084032084 ], [ 144.973748984381984, -37.847800783197968 ], [ 144.973578170133408, -37.847700324202521 ], [ 144.973424429405384, -37.847608472674018 ], [ 144.973261024679942, -37.847509254433589 ], [ 144.973136372172036, -37.847432067478401 ], [ 144.972994390035041, -37.847342184974174 ], [ 144.972877147050269, -37.847266238774012 ], [ 144.97276425313342, -37.847191020843098 ], [ 144.972689158333907, -37.847138817975782 ], [ 144.972591801146734, -37.847069084097228 ], [ 144.972501028145871, -37.84700248109737 ], [ 144.972401052722461, -37.846927425845806 ], [ 144.972321497224186, -37.84686615693559 ], [ 144.972226569196209, -37.846791109148135 ], [ 144.972144395461669, -37.84672451886491 ], [ 144.972060684936309, -37.846654805167091 ], [ 144.972000240738708, -37.846602623965147 ], [ 144.971926077001314, -37.846536045527138 ], [ 144.971860168164824, -37.846474796797658 ], [ 144.97179105182289, -37.846408225823758 ], [ 144.971739206891641, -37.84635605733844 ], [ 144.971681308052268, -37.846294820454176 ], [ 144.971634510516481, -37.846242659432974 ], [ 144.971590675582377, -37.846190502792872 ], [ 144.971562791378574, -37.846153804353172 ], [ 144.971525736570044, -37.846102429578295 ], [ 144.971490490359287, -37.846051600623774 ], [ 144.971450922970547, -37.845992477671416 ], [ 144.971418758074549, -37.845942578633043 ], [ 144.971379524508251, -37.84587945365773 ], [ 144.971344847032043, -37.845821806441869 ], [ 144.971308694780504, -37.845759611382704 ], [ 144.971281779531836, -37.845711296645916 ], [ 144.971247631817334, -37.845647298393629 ], [ 144.971216369478327, -37.845586579070961 ], [ 144.971182555586296, -37.845518578795719 ], [ 144.971156209072177, -37.845463445797598 ], [ 144.971125476494905, -37.845396375438497 ], [ 144.971099463803256, -37.845337240417422 ], [ 144.971073647050872, -37.845275756382861 ], [ 144.971055675645886, -37.845230140826551 ], [ 144.971032844067395, -37.845168144216373 ], [ 144.971011917227543, -37.845108135918309 ], [ 144.970989255675931, -37.845039679706616 ], [ 144.9709715739464, -37.844983058903274 ], [ 144.970950916931855, -37.844912799498459 ], [ 144.970933405229204, -37.844849719093588 ], [ 144.970915993324979, -37.844782847183481 ], [ 144.970903840301844, -37.844731997667424 ], [ 144.970889509712379, -37.844666055673464 ], [ 144.970877247657086, -37.844604559570179 ], [ 144.97086492160463, -37.844536814383098 ], [ 144.970856183718723, -37.844482892760233 ], [ 144.970847102776588, -37.844418535067859 ], [ 144.970840369427748, -37.844362810251873 ], [ 144.970834812654999, -37.844306027039913 ], [ 144.970832078909524, -37.844265010087376 ], [ 144.970828921844145, -37.844208166583485 ], [ 144.970826276885617, -37.844152339047888 ], [ 144.970823684041164, -37.844087818343979 ], [ 144.970821911560989, -37.844033721717359 ], [ 144.970820161996556, -37.843965710799139 ], [ 144.970818953737336, -37.843903936972495 ], [ 144.970818076651256, -37.843837656963231 ], [ 144.970817790615712, -37.843786509292627 ], [ 144.970817920605214, -37.843719196647619 ], [ 144.970818428104337, -37.843655663515634 ], [ 144.970819401373831, -37.843584860656321 ], [ 144.970820552037566, -37.843527766694656 ], [ 144.97082239778544, -37.843458694744299 ], [ 144.970824391729195, -37.84339811056833 ], [ 144.970826880641653, -37.843335477788301 ], [ 144.970829127067276, -37.843289354264975 ], [ 144.970832719196181, -37.843227131340967 ], [ 144.970836592693871, -37.84316724543821 ], [ 144.9708414212121, -37.843099281617093 ], [ 144.970845774078839, -37.843043377306095 ], [ 144.97085160967265, -37.842974380849235 ], [ 144.970857198928712, -37.842912735641129 ], [ 144.970863513891572, -37.842847720776028 ], [ 144.970868683461077, -37.842798599917671 ], [ 144.97087587090229, -37.842735315961534 ], [ 144.970882946602956, -37.842676619709444 ], [ 144.970891141119722, -37.842612303117562 ], [ 144.970898026447628, -37.842561422953843 ], [ 144.970906700333444, -37.842501087953721 ], [ 144.970914592736932, -37.842449175154258 ], [ 144.970923076249989, -37.842396656242514 ], [ 144.970929637239124, -37.842359092377514 ], [ 144.970937968389791, -37.842306543236553 ], [ 144.970945601212918, -37.842254578935467 ], [ 144.970953863156012, -37.8421941622045 ], [ 144.970960306235952, -37.842143194297279 ], [ 144.970967829229664, -37.842078744472929 ], [ 144.970974203102003, -37.842019908975701 ], [ 144.970980536352499, -37.841956455545215 ], [ 144.970984952462516, -37.841907185197911 ], [ 144.970990153654355, -37.841841949356834 ], [ 144.970994598834125, -37.841780077160088 ], [ 144.970999061076554, -37.841710808225628 ], [ 144.971002218235753, -37.841654666682174 ], [ 144.971005490734967, -37.841586394141572 ], [ 144.971007908944813, -37.841526219504736 ], [ 144.971009893423485, -37.841463677617433 ], [ 144.971010856177315, -37.841417299409237 ], [ 144.971011477859207, -37.841354296164283 ], [ 144.971011574267152, -37.841293335510727 ], [ 144.971011162167684, -37.841223815595754 ], [ 144.971010363664391, -37.841166334912685 ], [ 144.971008819506238, -37.84109503258712 ], [ 144.971006987221585, -37.841031035234039 ], [ 144.971004548152195, -37.840963212878975 ], [ 144.971002224985313, -37.840911661034554 ], [ 144.970998596172734, -37.840844835073355 ], [ 144.970994736918129, -37.840782535280177 ], [ 144.970989976046837, -37.840713926908393 ], [ 144.970985724187386, -37.840659338364453 ], [ 144.970980068404856, -37.840594209963172 ], [ 144.970974684486691, -37.840537839008633 ], [ 144.970968636099286, -37.840480421856576 ], [ 144.970963715357442, -37.840438970996495 ], [ 144.970955419625056, -37.840382877313928 ], [ 144.970946206896912, -37.84032876115927 ], [ 144.970934474959421, -37.840267211027353 ], [ 144.970923699942205, -37.840216463994302 ], [ 144.970909034105944, -37.840153688691757 ], [ 144.970894822883622, -37.840097485209355 ], [ 144.97087859475829, -37.840038079028417 ], [ 144.97086515806339, -37.839993071980331 ], [ 144.970846290871293, -37.839934924205409 ], [ 144.97082758346113, -37.839880864673994 ], [ 144.970805782370292, -37.839821491728436 ], [ 144.970787347181215, -37.839774397352613 ], [ 144.970763983801305, -37.839718393528671 ], [ 144.970742614713487, -37.839670073982226 ], [ 144.970719523554635, -37.83962103531389 ], [ 144.970701552149649, -37.839585807499461 ], [ 144.970675994977597, -37.839539484988642 ], [ 144.970650424533943, -37.839495792969814 ], [ 144.970620393784969, -37.839447132831019 ], [ 144.970594800730396, -37.839407922391146 ], [ 144.970562130914658, -37.83936052065836 ], [ 144.970532064283162, -37.839318972590519 ], [ 144.970499371856505, -37.839276052436695 ], [ 144.97047374027963, -37.8392444772795 ], [ 144.970439485563929, -37.839204926247284 ], [ 144.97040675725475, -37.839169118164413 ], [ 144.970369863472285, -37.839130825538213 ], [ 144.970339735707569, -37.83910139433199 ], [ 144.970302819314185, -37.839067583284752 ], [ 144.970270052482732, -37.839039410484546 ], [ 144.970235736633811, -37.839011976313962 ], [ 144.970210039426405, -37.838993409416126 ], [ 144.970172485877072, -37.838968201218847 ], [ 144.970134202963436, -37.838943820817612 ], [ 144.970088532787457, -37.838916028142648 ], [ 144.970049007253095, -37.838893058060606 ], [ 144.969997843605825, -37.838864576205644 ], [ 144.969950201444846, -37.83883902164591 ], [ 144.969897795176905, -37.838811950110134 ], [ 144.969856152585095, -37.838791382794113 ], [ 144.969799792524043, -37.838764734535694 ], [ 144.969745414271102, -37.838739901115154 ], [ 144.969683560738758, -37.838712563676751 ], [ 144.969632558899605, -37.838690822202224 ], [ 144.969569462746563, -37.838664895083014 ], [ 144.969512967436174, -37.838642464428496 ], [ 144.969453247696947, -37.838619629255291 ], [ 144.96940799826649, -37.838603155540646 ], [ 144.96934522845828, -37.838581396608895 ], [ 144.969283536734054, -37.838560799550926 ], [ 144.969212194098247, -37.838537782269704 ], [ 144.969152339109655, -37.838519164700401 ], [ 144.969077042680738, -37.838496570696527 ], [ 144.969008614864549, -37.838476694777754 ], [ 144.968935155171295, -37.83845608026256 ], [ 144.968878429435989, -37.838440835155438 ], [ 144.968803727122037, -37.838421630959424 ], [ 144.968733182248371, -37.838404157806671 ], [ 144.968654526141307, -37.838385376888013 ], [ 144.96859106431404, -37.838370852920093 ], [ 144.968514244942611, -37.838354051490107 ], [ 144.968446829322232, -37.838339950799536 ], [ 144.96837709299723, -37.838326098554369 ], [ 144.968325698582362, -37.838316599123537 ], [ 144.968255809894998, -37.838304491614274 ], [ 144.968188134694287, -37.838293363436719 ], [ 144.968110903380136, -37.838281279255646 ], [ 144.968046999304903, -37.838271819569151 ], [ 144.967967671674785, -37.838260728412422 ], [ 144.967896424972821, -37.838251292054125 ], [ 144.967820868468152, -37.838241869388455 ], [ 144.96776338927333, -37.838235252316366 ], [ 144.967688815809026, -37.838227391844526 ], [ 144.967619243916545, -37.838220617001632 ], [ 144.967542574136274, -37.838213749554143 ], [ 144.967481523440171, -37.838208824301304 ], [ 144.96740862478535, -37.838203625344875 ], [ 144.967345477773279, -37.838199693116387 ], [ 144.967281100314864, -37.838196343750013 ], [ 144.967234567212586, -37.838194569650611 ], [ 144.967172980242822, -37.838193116555807 ], [ 144.967114587396566, -37.838192415012202 ], [ 144.96704923339621, -37.838192343012231 ], [ 144.966996282390028, -37.838192921889203 ], [ 144.966931911430038, -37.838194412083055 ], [ 144.966875193393264, -37.83819637205486 ], [ 144.966816264273319, -37.838199142669282 ], [ 144.966772584550199, -37.838201903003537 ], [ 144.966717426555732, -37.838206342109032 ], [ 144.966667133399397, -37.838211144695236 ], [ 144.966612958445268, -37.838217145994555 ], [ 144.96657095353163, -37.83822256784422 ], [ 144.966522220417602, -37.838229849564115 ], [ 144.966481198544329, -37.838236833607596 ], [ 144.966440753673027, -37.838244734590944 ], [ 144.966412869469224, -37.838251211482039 ], [ 144.966373034047365, -37.838261158020678 ], [ 144.96633305049545, -37.838271627084303 ], [ 144.966285965152224, -37.838284439379628 ], [ 144.966245729230536, -37.838295798671005 ], [ 144.966194240368594, -37.83831081556589 ], [ 144.966146754525539, -37.838325040613952 ], [ 144.966095013293824, -37.838340947736597 ], [ 144.966054347408829, -37.838353823712289 ], [ 144.965999873372994, -37.838371547364005 ], [ 144.96594773164145, -37.838388867239374 ], [ 144.965888854086899, -37.838408795490651 ], [ 144.965840685910734, -37.83842542745078 ], [ 144.965781555986439, -37.838446245929802 ], [ 144.965728984291587, -37.838465082489492 ], [ 144.9656738279227, -37.838485213053275 ], [ 144.965632429507593, -37.838500673009655 ], [ 144.965575520971413, -37.838522392322005 ], [ 144.96551996410264, -37.838543935638519 ], [ 144.965456096837158, -37.83856904962294 ], [ 144.965402842809226, -37.838590293094704 ], [ 144.965336242739625, -37.838617223608203 ], [ 144.965276029982419, -37.838641861752031 ], [ 144.96521173275363, -37.838668492420773 ], [ 144.965162402084076, -37.838689225045904 ], [ 144.965097852485542, -37.838716745942392 ], [ 144.965037209764944, -37.838742900770541 ], [ 144.96496992736229, -37.8387722381961 ], [ 144.964915940804246, -37.838796065648552 ], [ 144.964850961242377, -37.838825103229354 ], [ 144.964794241880185, -37.83885074721087 ], [ 144.964735918480812, -37.838877457415975 ], [ 144.964693272051477, -37.83889731970983 ], [ 144.964635215286279, -37.838925203071156 ], [ 144.96457895018969, -37.838952845763274 ], [ 144.964514691527569, -37.838985055210891 ], [ 144.964461478903473, -37.839012287873977 ], [ 144.964395371666143, -37.839046795876946 ], [ 144.964335957145153, -37.839078354626331 ], [ 144.964272902380316, -37.839112452600276 ], [ 144.964224890264916, -37.839138986695389 ], [ 144.964162542135455, -37.839174193152175 ], [ 144.964104331511749, -37.839207640427873 ], [ 144.96404013480705, -37.83924514544001 ], [ 144.96398897326722, -37.83927559559239 ], [ 144.963927829035043, -37.839312690575504 ], [ 144.963874818920033, -37.839345439283235 ], [ 144.963820723771732, -37.839379537143024 ], [ 144.963781571782249, -37.839404881085301 ], [ 144.963729683066816, -37.83943938890711 ], [ 144.963680432059647, -37.839472836068651 ], [ 144.963625253368207, -37.839511039467602 ], [ 144.963580496234329, -37.839542679578337 ], [ 144.963526024178236, -37.839581991460129 ], [ 144.963477977068351, -37.839617327148005 ], [ 144.963427998885606, -37.839654831978983 ], [ 144.963390897980361, -37.839683393410546 ], [ 144.963343972270081, -37.839720488212492 ], [ 144.96330112566892, -37.839755125332395 ], [ 144.963254906593988, -37.839793328617191 ], [ 144.963219009586084, -37.839823778575088 ], [ 144.9631772843845, -37.839860174809061 ], [ 144.963142094011943, -37.8398917332498 ], [ 144.963107318403615, -37.839923942321761 ], [ 144.963083261443472, -37.83994725859624 ], [ 144.963050695089521, -37.839979648112134 ], [ 144.963019268631882, -37.840011513975867 ], [ 144.962983516599593, -37.840048398076767 ], [ 144.962954032187383, -37.840079371792363 ], [ 144.962917550196664, -37.84011837036708 ], [ 144.962884880106174, -37.840153838667675 ], [ 144.962850340160941, -37.840191945094247 ], [ 144.962824164418862, -37.84022139885375 ], [ 144.962790335916026, -37.84026022273234 ], [ 144.962758877912563, -37.8402969133586 ], [ 144.962724319451326, -37.840337851711013 ], [ 144.962696900076367, -37.840370907907371 ], [ 144.962664283660615, -37.84041095411164 ], [ 144.962636134327227, -37.840446124781813 ], [ 144.962607556539979, -37.840482536556181 ], [ 144.962587017791407, -37.840509400760851 ], [ 144.962559997486181, -37.840545709996185 ], [ 144.962534501640704, -37.84058070597024 ], [ 144.962506096194886, -37.840620474939364 ], [ 144.962483197577086, -37.840653233505293 ], [ 144.962455503573665, -37.840693719926435 ], [ 144.962431219815244, -37.840729938226154 ], [ 144.9624061230395, -37.840768187239185 ], [ 144.96238764932815, -37.840797133924632 ], [ 144.962364494597921, -37.840834490789518 ], [ 144.962343519509602, -37.840869189133144 ], [ 144.96232107622177, -37.840907263450056 ], [ 144.962303814597504, -37.840937432461168 ], [ 144.962283968537349, -37.840973269369961 ], [ 144.962267418355452, -37.84100415583309 ], [ 144.962251285759322, -37.841035463409369 ], [ 144.962240350777421, -37.841057915779892 ], [ 144.96222608462034, -37.841089764746854 ], [ 144.962212714297607, -37.841121573579308 ], [ 144.962197914535636, -37.841158874248109 ], [ 144.96218607044915, -37.841190614703244 ], [ 144.962171853318637, -37.84123107514948 ], [ 144.96215947562726, -37.841268267306454 ], [ 144.962146784733022, -37.841308659375372 ], [ 144.962137540900869, -37.841340283335825 ], [ 144.962126087820252, -37.841382489922204 ], [ 144.962115818996551, -37.841422773479302 ], [ 144.962104948547392, -37.841468139843123 ], [ 144.962096697346624, -37.841505147128089 ], [ 144.962087353133711, -37.841550445114592 ], [ 144.962079684564344, -37.841590612177001 ], [ 144.962072357974336, -37.841632633891379 ], [ 144.962067544205155, -37.84166405937939 ], [ 144.962061839992259, -37.841707106002119 ], [ 144.962056935472788, -37.841749019204663 ], [ 144.962051977686883, -37.841797088239659 ], [ 144.962048435608153, -37.84183707043006 ], [ 144.962044715635898, -37.841886953982517 ], [ 144.962041919984131, -37.841931958585185 ], [ 144.962039562452588, -37.841979911125492 ], [ 144.962038341569098, -37.842016603443348 ], [ 144.962037510273774, -37.842064487606336 ], [ 144.962037314876341, -37.842109375714323 ], [ 144.962037721394665, -37.842159074394779 ], [ 144.962038609378908, -37.842198858112752 ], [ 144.962040378337917, -37.842246625781051 ], [ 144.962042504135752, -37.842288224016485 ], [ 144.962045356476409, -37.842330887294779 ], [ 144.962048090221884, -37.842361974644575 ], [ 144.962053570813453, -37.842405419930749 ], [ 144.962060174372141, -37.842448350475905 ], [ 144.962069049342915, -37.842498232461807 ], [ 144.962077566104824, -37.842540286040794 ], [ 144.962089556395739, -37.842593431348575 ], [ 144.962101467536854, -37.84264192162729 ], [ 144.962115371031018, -37.842694189968896 ], [ 144.962127147324367, -37.84273474945735 ], [ 144.962144002343081, -37.842788418485995 ], [ 144.962160942007586, -37.842839295120406 ], [ 144.96218091234644, -37.842896227470924 ], [ 144.962197996222216, -37.842942346692944 ], [ 144.962219879764319, -37.842998402077285 ], [ 144.962240078960264, -37.843047784621177 ], [ 144.962262106713638, -37.843099082593127 ], [ 144.962279436282756, -37.843137096594035 ], [ 144.962304319419843, -37.843188701967364 ], [ 144.962329383343615, -37.84323860823212 ], [ 144.962358986997231, -37.843295494738705 ], [ 144.962384358927807, -37.843342506225902 ], [ 144.962416914106001, -37.843400793419526 ], [ 144.962447006553134, -37.843453086039986 ], [ 144.962479869738189, -37.843508478456052 ], [ 144.962505766421145, -37.843550558099992 ], [ 144.96254054280945, -37.843605073549881 ], [ 144.962573894787965, -37.843655872079822 ], [ 144.962611622700848, -37.843711788216751 ], [ 144.962642547907194, -37.843756254216395 ], [ 144.962680583826909, -37.843809275575765 ], [ 144.962714460557862, -37.843855142262449 ], [ 144.962750069705407, -37.843901831091529 ], [ 144.962776860410997, -37.843935508335861 ], [ 144.962822982562244, -37.84398953600131 ], [ 144.962874770336498, -37.84404790589069 ], [ 144.962941230303215, -37.844120769289127 ], [ 144.963002670620398, -37.844186537041516 ], [ 144.963086733623584, -37.844274798420201 ], [ 144.963168511756237, -37.844359401905585 ], [ 144.96326222730238, -37.844455061147286 ], [ 144.963340112692663, -37.844533432666275 ], [ 144.963449826078886, -37.844642472076849 ], [ 144.963558859790965, -37.84474987140549 ], [ 144.963686176213628, -37.844874308796321 ], [ 144.963794051962395, -37.844978913911312 ], [ 144.963931020927987, -37.845110749165151 ], [ 144.964056499713223, -37.845230752260406 ], [ 144.964192310715504, -37.845359793300588 ], [ 144.964298213637846, -37.845459637903431 ], [ 144.964449080299715, -37.845600874744939 ], [ 144.96460020946796, -37.845741655872075 ], [ 144.964777884476177, -37.845906464959114 ], [ 144.964929460877499, -37.846046469683969 ], [ 144.965123133725797, -37.846224658939882 ], [ 144.965301518473439, -37.846388235910283 ], [ 144.965495638554785, -37.846565648763928 ], [ 144.965647976908713, -37.846704330729366 ], [ 144.965851749533044, -37.84688914144602 ], [ 144.966046579353815, -37.84706532218302 ], [ 144.966266349818198, -37.84726351306854 ], [ 144.966445943751523, -37.847424990877251 ], [ 144.966666161448984, -37.847622405360511 ], [ 144.966861753222418, -37.847797263338094 ], [ 144.967066735032404, -37.847979974893057 ], [ 144.967220371527873, -37.848116403268378 ], [ 144.967426686508617, -37.848298633345614 ], [ 144.96762454960998, -37.848472671027807 ], [ 144.967848371806156, -37.848668783737935 ], [ 144.968031835409363, -37.84882886400635 ], [ 144.968257481700391, -37.849024932823355 ], [ 144.968458452519002, -37.849198895724662 ], [ 144.968669699311846, -37.849381007127889 ], [ 144.968828630436633, -37.849517308098747 ], [ 144.969032496014506, -37.849691201343575 ], [ 144.969220891429813, -37.849851162937981 ], [ 144.969426581102596, -37.850025012289684 ], [ 144.969588619944602, -37.850161238479664 ], [ 144.9697799101192, -37.850321130417591 ], [ 144.969943773056116, -37.850457312714447 ], [ 144.970108706657413, -37.850593469247947 ], [ 144.970225841707901, -37.850689257341493 ], [ 144.970377990977568, -37.850812397778277 ], [ 144.970520073201328, -37.850926404502957 ], [ 144.970676798331084, -37.851051104771983 ], [ 144.970801729291395, -37.851149550357512 ], [ 144.970951073206209, -37.851266032468139 ], [ 144.971080580026666, -37.851366037885903 ], [ 144.971212772678058, -37.851466958857387 ], [ 144.971308482967402, -37.851538892872505 ], [ 144.971426276120582, -37.851625856430211 ], [ 144.971531250462647, -37.851702082550432 ], [ 144.971641662400856, -37.851780827949732 ], [ 144.971724797286896, -37.851838760657948 ], [ 144.971818057961684, -37.851901944918097 ], [ 144.971893811632754, -37.851951659467915 ], [ 144.971965232851517, -37.851996550316059 ], [ 144.972011159775406, -37.852023316470493 ], [ 144.972075991321589, -37.852060026043013 ], [ 144.972140518143021, -37.852095802123245 ], [ 144.972215962295621, -37.852136866638176 ], [ 144.972279969956418, -37.852171052324138 ], [ 144.97236133852283, -37.852213739508642 ], [ 144.972435958789987, -37.852252280137023 ], [ 144.972516808195678, -37.85229337692725 ], [ 144.972579931360485, -37.852324853052608 ], [ 144.972663953414752, -37.852365968787034 ], [ 144.972743978935057, -37.852404541690703 ], [ 144.972833925403165, -37.852447280094694 ], [ 144.972907142013725, -37.852481520768194 ], [ 144.97299656932114, -37.852522668777908 ], [ 144.973075710345483, -37.85255853212098 ], [ 144.973158328743125, -37.852595347900518 ], [ 144.97321994498887, -37.852622207737426 ], [ 144.973304120868534, -37.852658101144101 ], [ 144.97338591538076, -37.852692393037088 ], [ 144.973479553658109, -37.852731047223855 ], [ 144.973557291025799, -37.852762610612039 ], [ 144.973654101951723, -37.852801283743005 ], [ 144.973741301717098, -37.852835607911281 ], [ 144.973834055498486, -37.852871552537444 ], [ 144.973904880693965, -37.852898467361889 ], [ 144.973997115314688, -37.852932821593782 ], [ 144.974083430584102, -37.852964436201447 ], [ 144.974178837853401, -37.852998809377539 ], [ 144.974255068302028, -37.853025756477273 ], [ 144.974346418426762, -37.853057401148554 ], [ 144.974425821523965, -37.85308436719248 ], [ 144.974507086827941, -37.853111344355831 ], [ 144.974566135730072, -37.85313033940502 ], [ 144.974646639222215, -37.853155121007312 ], [ 144.974724744417699, -37.853178346465732 ], [ 144.97481403482891, -37.853204054990449 ], [ 144.974888054037621, -37.853224629240806 ], [ 144.974980103691678, -37.853249325684814 ], [ 144.975062909819457, -37.853270826857596 ], [ 144.975150873486712, -37.853292872093533 ], [ 144.975217931384577, -37.853308929470884 ], [ 144.975305116310807, -37.853328824515586 ], [ 144.97538659569463, -37.853346662399595 ], [ 144.975476539863706, -37.853365545363602 ], [ 144.975548298693838, -37.853379878455307 ], [ 144.975634156876112, -37.853396110211236 ], [ 144.97570867494909, -37.853409431222232 ], [ 144.975784812577672, -37.853422158185865 ], [ 144.975840010464481, -37.853430520149942 ], [ 144.97591329270935, -37.853440428900939 ], [ 144.975982946054557, -37.853448948512636 ], [ 144.97606108412532, -37.853457560656622 ], [ 144.976124554900679, -37.853463713586549 ], [ 144.976201914230387, -37.8534701755393 ], [ 144.976270240831639, -37.853475031862217 ], [ 144.976341417591527, -37.853479127133205 ], [ 144.976394355099728, -37.853481247938632 ], [ 144.976461445872815, -37.853482692001549 ], [ 144.976522811163221, -37.853483031451461 ], [ 144.976589123195311, -37.853482325323142 ], [ 144.976640733959584, -37.853480782839796 ], [ 144.976700863421826, -37.853477710029701 ], [ 144.976751695445103, -37.853474017355119 ], [ 144.97680207038124, -37.853469062611765 ], [ 144.976837062323256, -37.853464313871747 ], [ 144.976885043900467, -37.853456391640321 ], [ 144.976931798349256, -37.853447643245318 ], [ 144.976985456878083, -37.853436547226728 ], [ 144.977030120663642, -37.853426391293773 ], [ 144.977085884187858, -37.853412606236539 ], [ 144.977136224925033, -37.853399276516434 ], [ 144.977189897785991, -37.853384083921256 ], [ 144.977230999700822, -37.85337152996069 ], [ 144.977284680974094, -37.85335393285316 ], [ 144.977335036043371, -37.85333650655646 ], [ 144.977390822312032, -37.853316220410285 ], [ 144.977435510515249, -37.853299085124611 ], [ 144.977489206120651, -37.853277391440486 ], [ 144.97753599931923, -37.853257567116167 ], [ 144.977584028058544, -37.853236164443075 ], [ 144.977619061601047, -37.853219524953978 ], [ 144.977665868149614, -37.853195884773108 ], [ 144.977710579097277, -37.853172248398486 ], [ 144.977760970260988, -37.85314450515628 ], [ 144.97780211092558, -37.853120875266406 ], [ 144.977852510501634, -37.853090727511848 ], [ 144.977897235781398, -37.853062994560638 ], [ 144.977944065074382, -37.853032853290813 ], [ 144.977979123034572, -37.853009234449004 ], [ 144.978023861664298, -37.852977685641235 ], [ 144.978065025073363, -37.852947554662407 ], [ 144.978109772115431, -37.852913601342287 ], [ 144.978144844407723, -37.852885885923875 ], [ 144.978186021166749, -37.852851939088495 ], [ 144.978221101871355, -37.852821819157732 ], [ 144.978256187513637, -37.852790287882762 ], [ 144.978280882347718, -37.852766687863578 ], [ 144.978313657160697, -37.852734334494187 ], [ 144.978344800896849, -37.852702813958096 ], [ 144.978379729858119, -37.85266664442296 ], [ 144.978408094722653, -37.852636542788069 ], [ 144.97844265699851, -37.852598966162873 ], [ 144.978473176011335, -37.852565048362237 ], [ 144.978504959415602, -37.85252889063824 ], [ 144.97852858990629, -37.852501206390563 ], [ 144.978558527005305, -37.852465055599176 ], [ 144.978585900461098, -37.852431149609671 ], [ 144.978615470874701, -37.852393591728223 ], [ 144.978638476642061, -37.852363510216001 ], [ 144.978665268184074, -37.852327371235745 ], [ 144.97868790726605, -37.85229588263347 ], [ 144.978710331119629, -37.852263568130496 ], [ 144.978725895640054, -37.852240002394382 ], [ 144.978745731684569, -37.852207371867024 ], [ 144.978763961906651, -37.85217534485281 ], [ 144.978783756779706, -37.852138351436246 ], [ 144.978799251156175, -37.852107352629645 ], [ 144.978817416040982, -37.852068401899956 ], [ 144.978832869246048, -37.852033040204141 ], [ 144.978848298285243, -37.851995117682058 ], [ 144.978859131591463, -37.851965870636548 ], [ 144.97887234136158, -37.851924285597335 ], [ 144.978884013589663, -37.851882684057522 ], [ 144.978896178228467, -37.851833830966712 ], [ 144.978905230940541, -37.851792201314773 ], [ 144.978916172733193, -37.851730637782019 ], [ 144.978925761593786, -37.85166738141519 ], [ 144.978938174572647, -37.851568644532662 ], [ 144.978956518484722, -37.851402074361566 ], [ 144.978915476189968, -37.851153147657648 ], [ 144.978795280294406, -37.850895540917492 ], [ 144.978666498977759, -37.850732841459973 ], [ 144.978546303082169, -37.850583699975189 ], [ 144.978374594659954, -37.850400662286084 ], [ 144.978194300816625, -37.850258299324842 ], [ 144.978014006973297, -37.850102377670957 ], [ 144.977868054814394, -37.849993910239007 ], [ 144.977653419286611, -37.84983798802601 ], [ 144.977464540022169, -37.849729520205116 ] ] ] } }
]
}
